[{"OBJECT_NAME":"STARLINK-4149","OBJECT_ID":"2022-086BA","EPOCH":"2026-03-09T12:32:56.036256","MEAN_MOTION":15.08839836,"ECCENTRICITY":0.00010026,"INCLINATION":53.2177,"RA_OF_ASC_NODE":184.8733,"ARG_OF_PERICENTER":104.4351,"MEAN_ANOMALY":255.6752,"EPHEMERIS_TYPE":0,"CLASSIFICATION_TYPE":"U","NORAD_CAT_ID":53290,"ELEMENT_SET_NO":999,"REV_AT_EPOCH":20116,"BSTAR":-4.362973e-6,"MEAN_MOTION_DOT":-3.57e-6,"MEAN_MOTION_DDOT":0},{"OBJECT_NAME":"ICON","OBJECT_ID":"2019-068A","EPOCH":"2026-03-09T22:35:01.599072","MEAN_MOTION":15.06276737,"ECCENTRICITY":0.00134076,"INCLINATION":26.9847,"RA_OF_ASC_NODE":325.9297,"ARG_OF_PERICENTER":187.0145,"MEAN_ANOMALY":173.0229,"EPHEMERIS_TYPE":0,"CLASSIFICATION_TYPE":"U","NORAD_CAT_ID":44628,"ELEMENT_SET_NO":999,"REV_AT_EPOCH":35105,"BSTAR":0.00030799545,"MEAN_MOTION_DOT":4.879e-5,"MEAN_MOTION_DDOT":0}]
